[{"OBJECT_NAME":"STARLINK-2713","OBJECT_ID":"2021-041BB","EPOCH":"2026-03-09T16:00:03.000096","MEAN_MOTION":15.30159001,"ECCENTRICITY":8.76e-5,"INCLINATION":53.1595,"RA_OF_ASC_NODE":113.9599,"ARG_OF_PERICENTER":75.4197,"MEAN_ANOMALY":44.6441,"EPHEMERIS_TYPE":0,"CLASSIFICATION_TYPE":"U","NORAD_CAT_ID":48602,"ELEMENT_SET_NO":999,"REV_AT_EPOCH":575,"BSTAR":0.00060221,"MEAN_MOTION_DOT":0.00017496,"MEAN_MOTION_DDOT":0},{"OBJECT_NAME":"HAWK-11C","OBJECT_ID":"2024-247E","EPOCH":"2026-03-09T12:17:35.407968","MEAN_MOTION":15.2884802,"ECCENTRICITY":0.00059001,"INCLINATION":45.0045,"RA_OF_ASC_NODE":114.8762,"ARG_OF_PERICENTER":329.704,"MEAN_ANOMALY":30.3502,"EPHEMERIS_TYPE":0,"CLASSIFICATION_TYPE":"U","NORAD_CAT_ID":62381,"ELEMENT_SET_NO":999,"REV_AT_EPOCH":6774,"BSTAR":0.00033290115,"MEAN_MOTION_DOT":9.223e-5,"MEAN_MOTION_DDOT":0}]
